[{"OBJECT_NAME":"HORS 1","OBJECT_ID":"2023-091Y","EPOCH":"2026-03-09T22:53:40.941312","MEAN_MOTION":15.24891371,"ECCENTRICITY":0.00107483,"INCLINATION":97.5184,"RA_OF_ASC_NODE":132.0743,"ARG_OF_PERICENTER":84.6669,"MEAN_ANOMALY":275.5794,"EPHEMERIS_TYPE":0,"CLASSIFICATION_TYPE":"U","NORAD_CAT_ID":57188,"ELEMENT_SET_NO":999,"REV_AT_EPOCH":14918,"BSTAR":0.00046916276,"MEAN_MOTION_DOT":0.00011622,"MEAN_MOTION_DDOT":0},{"OBJECT_NAME":"OBJECT D","OBJECT_ID":"2025-313D","EPOCH":"2026-03-09T21:56:57.808608","MEAN_MOTION":14.89111186,"ECCENTRICITY":0.01485836,"INCLINATION":97.5765,"RA_OF_ASC_NODE":143.4472,"ARG_OF_PERICENTER":297.1144,"MEAN_ANOMALY":61.4984,"EPHEMERIS_TYPE":0,"CLASSIFICATION_TYPE":"U","NORAD_CAT_ID":67251,"ELEMENT_SET_NO":999,"REV_AT_EPOCH":1062,"BSTAR":0.00021863983,"MEAN_MOTION_DOT":2.471e-5,"MEAN_MOTION_DDOT":0}]
